start=new Date('2021-11-14T00:00:00.000Z').valueOf();
sats=[{"APOAPSIS":"511.710","NORAD_CAT_ID":"44238","INCLINATION":"52.9984","MEAN_MOTION_DDOT":"0.0000000000000","BSTAR":"0.00032154000000","REV_AT_EPOCH":"13536","SITE":"AFETR","FILE":"3214514","REF_FRAME":"TEME","ECCENTRICITY":"0.00015990","RA_OF_ASC_NODE":"25.5536","GP_ID":"189710032","PERIOD":"94.835","TLE_LINE2":"2 44238  52.9984  25.5536 0001599  55.2351 304.8792 15.18422867135366","ELEMENT_SET_NO":"999","ARG_OF_PERICENTER":"55.2351","OBJECT_TYPE":"PAYLOAD","MEAN_MOTION_DOT":"0.00006388","PERIAPSIS":"509.507","TLE_LINE1":"1 44238U 19029D   21317.88616569  .00006388  00000-0  32154-3 0  9998","CLASSIFICATION_TYPE":"U","MEAN_ANOMALY":"304.8792","EPOCH":"2021-11-13T21:16:04.715616","OBJECT_ID":"2019-029D","COUNTRY_CODE":"US","MEAN_MOTION":"15.18422867","EPHEMERIS_TYPE":"0","MEAN_ELEMENT_THEORY":"SGP4","CENTER_NAME":"EARTH","DECAY_DATE":null,"TIME_SYSTEM":"UTC","OBJECT_NAME":"STARLINK-24","SEMIMAJOR_AXIS":"6888.744","RCS_SIZE":"LARGE","LAUNCH_DATE":"2019-05-24"},{"OBJECT_ID":"2019-029Q","MEAN_ELEMENT_THEORY":"SGP4","COUNTRY_CODE":"US","MEAN_MOTION":"15.24211113","EPHEMERIS_TYPE":"0","DECAY_DATE":null,"CENTER_NAME":"EARTH","TIME_SYSTEM":"UTC","OBJECT_NAME":"STARLINK-61","SEMIMAJOR_AXIS":"6871.292","RCS_SIZE":"LARGE","LAUNCH_DATE":"2019-05-24","PERIAPSIS":"489.434","CLASSIFICATION_TYPE":"U","TLE_LINE1":"1 44249U 19029Q   21317.80837666  .00011833  00000-0  49198-3 0  9992","MEAN_ANOMALY":"200.0373","EPOCH":"2021-11-13T19:24:03.743424","REF_FRAME":"TEME","SITE":"AFETR","FILE":"3214514","ECCENTRICITY":"0.00054190","RA_OF_ASC_NODE":"354.6166","GP_ID":"189710283","ARG_OF_PERICENTER":"160.0836","ELEMENT_SET_NO":"999","TLE_LINE2":"2 44249  52.9775 354.6166 0005419 160.0836 200.0373 15.24211113136482","PERIOD":"94.475","MEAN_MOTION_DOT":"0.00011833","OBJECT_TYPE":"PAYLOAD","INCLINATION":"52.9775","APOAPSIS":"496.881","NORAD_CAT_ID":"44249","MEAN_MOTION_DDOT":"0.0000000000000","BSTAR":"0.00049198000000","REV_AT_EPOCH":"13648"},{"PERIAPSIS":"502.837","EPOCH":"2021-11-13T22:00:39.156768","MEAN_ANOMALY":"330.1989","TLE_LINE1":"1 44252U 19029T   21317.91711987  .00007702  00000-0  36085-3 0  9996","CLASSIFICATION_TYPE":"U","TIME_SYSTEM":"UTC","CENTER_NAME":"EARTH","DECAY_DATE":null,"COUNTRY_CODE":"US","EPHEMERIS_TYPE":"0","MEAN_MOTION":"15.20640261","MEAN_ELEMENT_THEORY":"SGP4","OBJECT_ID":"2019-029T","LAUNCH_DATE":"2019-05-24","SEMIMAJOR_AXIS":"6882.045","RCS_SIZE":"LARGE","OBJECT_NAME":"STARLINK-71","REV_AT_EPOCH":"13601","BSTAR":"0.00036085000000","MEAN_MOTION_DDOT":"0.0000000000000","APOAPSIS":"504.983","NORAD_CAT_ID":"44252","INCLINATION":"52.9946","RA_OF_ASC_NODE":"24.9893","ECCENTRICITY":"0.00015590","SITE":"AFETR","FILE":"3214514","REF_FRAME":"TEME","MEAN_MOTION_DOT":"0.00007702","OBJECT_TYPE":"PAYLOAD","TLE_LINE2":"2 44252  52.9946  24.9893 0001559  29.9094 330.1989 15.20640261136013","PERIOD":"94.697","ARG_OF_PERICENTER":"29.9094","ELEMENT_SET_NO":"999","GP_ID":"189710534"},{"LAUNCH_DATE":"2019-05-24","OBJECT_NAME":"STARLINK-43","SEMIMAJOR_AXIS":"6767.762","RCS_SIZE":"LARGE","DECAY_DATE":null,"CENTER_NAME":"EARTH","TIME_SYSTEM":"UTC","OBJECT_ID":"2019-029Y","MEAN_ELEMENT_THEORY":"SGP4","EPHEMERIS_TYPE":"0","COUNTRY_CODE":"US","MEAN_MOTION":"15.59319715","EPOCH":"2021-11-13T18:06:00.297504","CLASSIFICATION_TYPE":"U","TLE_LINE1":"1 44257U 19029Y   21317.75417011  .00084074  00000-0  10426-2 0  9991","MEAN_ANOMALY":"242.5502","PERIAPSIS":"385.031","ARG_OF_PERICENTER":"117.6199","ELEMENT_SET_NO":"999","PERIOD":"92.348","TLE_LINE2":"2 44257  52.9934 243.3243 0006791 117.6199 242.5502 15.59319715138169","MEAN_MOTION_DOT":"0.00084074","OBJECT_TYPE":"PAYLOAD","GP_ID":"189709282","RA_OF_ASC_NODE":"243.3243","ECCENTRICITY":"0.00067910","REF_FRAME":"TEME","SITE":"AFETR","FILE":"3214514","BSTAR":"0.00104260000000","REV_AT_EPOCH":"13816","APOAPSIS":"394.223","NORAD_CAT_ID":"44257","INCLINATION":"52.9934","MEAN_MOTION_DDOT":"0.0000000000000"},{"REF_FRAME":"TEME","FILE":"3214514","SITE":"AFETR","ECCENTRICITY":"0.00061470","RA_OF_ASC_NODE":"298.8649","GP_ID":"189709532","ARG_OF_PERICENTER":"53.5394","ELEMENT_SET_NO":"999","TLE_LINE2":"2 44282  53.0181 298.8649 0006147  53.5394 306.6173 15.37363594136735","PERIOD":"93.667","OBJECT_TYPE":"PAYLOAD","MEAN_MOTION_DOT":"0.00019249","NORAD_CAT_ID":"44282","APOAPSIS":"458.111","INCLINATION":"53.0181","MEAN_MOTION_DDOT":"0.0000000000000","BSTAR":"0.00052690000000","REV_AT_EPOCH":"13673","OBJECT_ID":"2019-029AZ","MEAN_ELEMENT_THEORY":"SGP4","COUNTRY_CODE":"US","EPHEMERIS_TYPE":"0","MEAN_MOTION":"15.37363594","DECAY_DATE":null,"CENTER_NAME":"EARTH","TIME_SYSTEM":"UTC","OBJECT_NAME":"STARLINK-80","RCS_SIZE":"LARGE","SEMIMAJOR_AXIS":"6832.046","LAUNCH_DATE":"2019-05-24","PERIAPSIS":"449.711","CLASSIFICATION_TYPE":"U","TLE_LINE1":"1 44282U 19029AZ  21317.66814953  .00019249  00000-0  52690-3 0  9997","MEAN_ANOMALY":"306.6173","EPOCH":"2021-11-13T16:02:08.119392"},{"NORAD_CAT_ID":"44713","APOAPSIS":"548.111","INCLINATION":"53.0509","MEAN_MOTION_DDOT":"0.0000000000000","BSTAR":"-0.00002945100000","REV_AT_EPOCH":"11107","GP_ID":"189710323","PERIOD":"95.593","TLE_LINE2":"2 44713  53.0509  65.6180 0001248  81.5825 278.5305 15.06389036111074","ELEMENT_SET_NO":"999","ARG_OF_PERICENTER":"81.5825","OBJECT_TYPE":"PAYLOAD","MEAN_MOTION_DOT":"-0.00000720","SITE":"AFETR","FILE":"3214514","REF_FRAME":"TEME","RA_OF_ASC_NODE":"65.6180","ECCENTRICITY":"0.00012480","TLE_LINE1":"1 44713U 19074A   21317.79282932 -.00000720  00000-0 -29451-4 0  9992","CLASSIFICATION_TYPE":"U","MEAN_ANOMALY":"278.5305","EPOCH":"2021-11-13T19:01:40.453248","PERIAPSIS":"546.383","OBJECT_NAME":"STARLINK-1007","RCS_SIZE":"LARGE","SEMIMAJOR_AXIS":"6925.382","LAUNCH_DATE":"2019-11-11","OBJECT_ID":"2019-074A","COUNTRY_CODE":"US","EPHEMERIS_TYPE":"0","MEAN_MOTION":"15.06389036","MEAN_ELEMENT_THEORY":"SGP4","CENTER_NAME":"EARTH","DECAY_DATE":null,"TIME_SYSTEM":"UTC"},{"RCS_SIZE":"LARGE","SEMIMAJOR_AXIS":"6925.379","OBJECT_NAME":"STARLINK-1008","LAUNCH_DATE":"2019-11-11","COUNTRY_CODE":"US","EPHEMERIS_TYPE":"0","MEAN_MOTION":"15.06390018","MEAN_ELEMENT_THEORY":"SGP4","OBJECT_ID":"2019-074B","TIME_SYSTEM":"UTC","CENTER_NAME":"EARTH","DECAY_DATE":null,"MEAN_ANOMALY":"267.0084","TLE_LINE1":"1 44714U 19074B   21317.63895973 -.00000681  00000-0 -26833-4 0  9998","CLASSIFICATION_TYPE":"U","EPOCH":"2021-11-13T15:20:06.120672","PERIAPSIS":"546.327","GP_ID":"189710574","MEAN_MOTION_DOT":"-0.00000681","OBJECT_TYPE":"PAYLOAD","TLE_LINE2":"2 44714  53.0561  66.2782 0001325  93.1056 267.0084 15.06390018111056","PERIOD":"95.593","ELEMENT_SET_NO":"999","ARG_OF_PERICENTER":"93.1056","FILE":"3214514","SITE":"AFETR","REF_FRAME":"TEME","RA_OF_ASC_NODE":"66.2782","ECCENTRICITY":"0.00013250","MEAN_MOTION_DDOT":"0.0000000000000","INCLINATION":"53.0561","APOAPSIS":"548.162","NORAD_CAT_ID":"44714","REV_AT_EPOCH":"11105","BSTAR":"-0.00002683300000"},{"SEMIMAJOR_AXIS":"6925.373","RCS_SIZE":"LARGE","OBJECT_NAME":"STARLINK-1009","LAUNCH_DATE":"2019-11-11","MEAN_ELEMENT_THEORY":"SGP4","COUNTRY_CODE":"US","MEAN_MOTION":"15.06392178","EPHEMERIS_TYPE":"0","OBJECT_ID":"2019-074C","TIME_SYSTEM":"UTC","DECAY_DATE":null,"CENTER_NAME":"EARTH","MEAN_ANOMALY":"272.4220","CLASSIFICATION_TYPE":"U","TLE_LINE1":"1 44715U 19074C   21317.82694443  .00000046  00000-0  22014-4 0  9999","EPOCH":"2021-11-13T19:50:47.998752","PERIAPSIS":"546.334","GP_ID":"189709322","OBJECT_TYPE":"PAYLOAD","MEAN_MOTION_DOT":"0.00000046","ELEMENT_SET_NO":"999","ARG_OF_PERICENTER":"87.6918","TLE_LINE2":"2 44715  53.0557  65.4312 0001304  87.6918 272.4220 15.06392178111077","PERIOD":"95.593","REF_FRAME":"TEME","SITE":"AFETR","FILE":"3214514","RA_OF_ASC_NODE":"65.4312","ECCENTRICITY":"0.00013040","MEAN_MOTION_DDOT":"0.0000000000000","APOAPSIS":"548.141","NORAD_CAT_ID":"44715","INCLINATION":"53.0557","REV_AT_EPOCH":"11107","BSTAR":"0.00002201400000"},{"MEAN_ANOMALY":"279.8672","TLE_LINE1":"1 44716U 19074D   21317.77902626 -.00000333  00000-0 -34926-5 0  9996","CLASSIFICATION_TYPE":"U","EPOCH":"2021-11-13T18:41:47.868864","PERIAPSIS":"546.294","SEMIMAJOR_AXIS":"6925.349","RCS_SIZE":"LARGE","OBJECT_NAME":"STARLINK-1010","LAUNCH_DATE":"2019-11-11","COUNTRY_CODE":"US","MEAN_MOTION":"15.06399820","EPHEMERIS_TYPE":"0","MEAN_ELEMENT_THEORY":"SGP4","OBJECT_ID":"2019-074D","TIME_SYSTEM":"UTC","CENTER_NAME":"EARTH","DECAY_DATE":null,"MEAN_MOTION_DDOT":"0.0000000000000","NORAD_CAT_ID":"44716","APOAPSIS":"548.134","INCLINATION":"53.0573","REV_AT_EPOCH":"11105","BSTAR":"-0.00000349260000","GP_ID":"189709572","MEAN_MOTION_DOT":"-0.00000333","OBJECT_TYPE":"PAYLOAD","PERIOD":"95.592","TLE_LINE2":"2 44716  53.0573  65.6417 0001328  80.2467 279.8672 15.06399820111059","ELEMENT_SET_NO":"999","ARG_OF_PERICENTER":"80.2467","FILE":"3214514","SITE":"AFETR","REF_FRAME":"TEME","ECCENTRICITY":"0.00013280","RA_OF_ASC_NODE":"65.6417"},{"CLASSIFICATION_TYPE":"U","TLE_LINE1":"1 44717U 19074E   21317.77717391  .00000763  00000-0  70117-4 0  9996","MEAN_ANOMALY":"275.9098","EPOCH":"2021-11-13T18:39:07.825824","PERIAPSIS":"546.287","OBJECT_NAME":"STARLINK-1011","SEMIMAJOR_AXIS":"6925.334","RCS_SIZE":"LARGE","LAUNCH_DATE":"2019-11-11","OBJECT_ID":"2019-074E","MEAN_ELEMENT_THEORY":"SGP4","MEAN_MOTION":"15.06404734","COUNTRY_CODE":"US","EPHEMERIS_TYPE":"0","DECAY_DATE":null,"CENTER_NAME":"EARTH","TIME_SYSTEM":"UTC","INCLINATION":"53.0545","APOAPSIS":"548.111","NORAD_CAT_ID":"44717","MEAN_MOTION_DDOT":"0.0000000000000","BSTAR":"0.00007011700000","REV_AT_EPOCH":"11079","GP_ID":"189710824","ARG_OF_PERICENTER":"84.2041","ELEMENT_SET_NO":"999","TLE_LINE2":"2 44717  53.0545  85.6476 0001317  84.2041 275.9098 15.06404734110796","PERIOD":"95.592","MEAN_MOTION_DOT":"0.00000763","OBJECT_TYPE":"PAYLOAD","REF_FRAME":"TEME","SITE":"AFETR","FILE":"3214514","ECCENTRICITY":"0.00013170","RA_OF_ASC_NODE":"85.6476"}];
